# From MPC184412
C/2024 G3 (ATLAS),h,01/13.4233/2025,116.8473,220.3679,108.1429,1.000007,0.093606,2000,9.0,4.0
# From MPC188411
C/2024 G4 (PANSTARRS),e,33.0272,152.9765,131.4167,3234,0.0000054,0.99848465,0.0000,03/21.5516/2026,2000,g  8.0,4.0
# From MPEC 2024-JC6
C/2024 G5 (Leonard),e,50.3876,316.3882,209.5900,588.9232,0.0000690,0.99498542,0.0000,09/07.0923/2024,2000,g 13.0,4.0
# From MPC188411
C/2024 G6 (ATLAS),h,02/20.6478/2026,120.4535,250.9515,23.4298,1.001989,6.429975,2000,5.5,4.0
# From MPC184412
C/2024 G7 (ATLAS),h,02/10.0325/2025,131.5122,191.9681,289.6535,1.001846,6.027548,2000,7.0,4.0
# From MPEC 2024-Q05
A/2024 G8,e,97.4252,11.2516,249.1559,141.0930,0.0005881,0.99169013,0.0000,06/15.5721/2024,2000,g 20.0,2.0
# From MPEC 2024-JU4
P/2024 J1 (PANSTARRS),e,13.1602,321.9344,200.3709,3.808737,0.1325967,0.30781612,94.7544,10/26.0/2025,2000,g 14.5,4.0
# From MPC188411
C/2024 J2 (Wierzchos),e,79.2977,189.0600,143.1507,148.1041,0.0005468,0.98777118,0.0000,03/19.7653/2025,2000,g 11.5,4.0
# From MPC188411
C/2024 J3 (ATLAS),h,11/25.3738/2026,75.6416,285.9615,74.0886,1.000523,3.865363,2000,5.0,4.0
# From MPC188411
C/2024 J4 (Lemmon),e,117.5257,19.3099,127.8562,6106,0.0000021,0.99906727,0.0000,04/25.9644/2025,2000,g  8.0,4.0
# From MPEC 2024-LB4
P/2024 K1 (PANSTARRS),e,1.7861,251.6843,351.9119,6.843807,0.0550500,0.49516669,29.4595,10/26.0/2025,2000,g 13.5,4.0
# From MPC186631
C/2024 L1 (PANSTARRS),e,99.1608,45.1391,171.7854,11.46460,0.0253902,0.53351695,4.7213,10/26.0/2025,2000,g 10.0,4.0
# From MPEC 2024-P23
C/2024 L2 (PANSTARRS),e,139.4871,266.2859,345.6033,474.5790,0.0000953,0.98245559,0.0000,06/12.5533/2025,2000,g  7.5,3.2
# From MPEC 2024-RQ6
C/2024 L3 (PANSTARRS),h,11/23.9692/2023,111.5915,294.9985,59.0687,1.003426,6.857734,2000,9.5,4.0
# From MPC188411
C/2024 L5 (ATLAS),h,03/10.4016/2025,166.5727,139.1781,290.5193,1.036990,3.432510,2000,9.0,4.0
# From MPC188412
C/2024 M1 (ATLAS),e,73.7095,76.2143,345.5876,29.77022,0.0060678,0.94278181,2.0632,10/26.0/2025,2000,g 12.0,4.0
# From MPC188412
C/2024 N1 (PANSTARRS),h,10/18.8740/2025,88.7815,323.0243,91.2539,1.001069,4.398394,2000,10.5,4.0
# From MPC188412
C/2024 N3 (Sarneczky),h,04/11.5006/2025,88.7287,82.6094,86.8915,1.001721,5.014643,2000,8.0,4.0
# From MPC188412
C/2024 N4 (Sarneczky),h,01/10.3297/2025,49.7785,339.6529,116.7261,1.004202,5.398203,2000,7.5,4.0
# From MPEC 2024-PC5
C/2024 O1 (PANSTARRS),h,01/28.2674/2023,59.0814,303.3449,349.8675,1.000328,6.605851,2000,8.5,4.0
# From MPEC 2024-UA9
P/2024 O2 (PANSTARRS),e,28.9782,6.8068,310.7752,7.379148,0.0491694,0.49889619,27.2373,10/26.0/2025,2000,g 12.0,4.0
# From MPEC 2025-A40
P/2024 OC2 (PANSTARRS),e,7.6708,136.6125,258.5457,2.625530,0.2316747,0.77412756,88.4316,10/26.0/2025,2000,g 20.5,4.0
# From MPC186632
C/2024 PN7 (PANSTARRS),e,101.2064,358.5845,74.2722,67.11320,0.0017926,0.97728332,0.0000,12/06.4236/2024,2000,g 15.2,4.0
# From MPEC 2024-UQ8
P/2024 Q1 (PANSTARRS),e,5.0068,23.0362,284.7087,3.524772,0.1489387,0.53463569,74.2182,10/26.0/2025,2000,g 17.0,4.0
# From MPC185660
C/2024 Q3 (PANSTARRS),h,03/05.2122/2025,121.3769,337.2888,70.1276,1.001413,2.091576,2000,15.0,4.0
# From MPC188412
C/2024 Q4 (PANSTARRS),e,3.3163,324.2655,133.0441,589.6948,0.0000688,0.99080962,0.0000,11/11.9516/2024,2000,g 10.0,4.0
# From MPEC 2024-TP3
P/2024 R1 (PANSTARRS),e,12.7282,84.9851,230.8325,3.459648,0.1531638,0.49302872,76.1129,10/26.0/2025,2000,g 18.0,4.0
# From MPC182883
P/2024 R2 (PANSTARRS),e,15.1182,192.9848,203.8744,3.148022,0.1764605,0.26871730,68.7312,10/26.0/2025,2000,g 15.5,4.0
# From MPEC 2024-YC7
P/2024 R3 (PANSTARRS),e,14.7053,33.1513,309.4791,3.202830,0.1719504,0.26768033,92.0103,10/26.0/2025,2000,g 15.0,4.0
# From MPC188412
C/2024 R4 (PANSTARRS),h,10/26.6845/2027,95.3699,345.9390,108.9994,1.002535,4.408834,2000,6.5,4.0
# From MPC188412
C/2024 S1 (ATLAS),e,142.1696,348.0948,69.9174,86.13573,0.0012329,0.99990739,0.0000,10/28.4474/2024,2000,g 15.5,4.0
# From MPEC 2025-A40
P/2024 S2 (Rankin),e,7.5264,8.3348,49.1561,5.036478,0.0871994,0.59346590,35.2948,10/26.0/2025,2000,g 15.0,4.0
# From MPC182883
P/2024 T1 (Rankin),e,17.6201,279.7098,164.8688,6.598314,0.0581507,0.65336831,22.7150,10/26.0/2025,2000,g 14.5,4.0
# From MPC184413
P/2024 T2 (Rankin),e,12.9289,113.0602,343.8346,6.171615,0.0642844,0.68039588,20.6783,10/26.0/2025,2000,g 16.0,4.0
# From MPC188412
C/2024 T3 (PANSTARRS),e,53.4421,74.8268,336.8935,88.88692,0.0011761,0.95819369,0.2643,10/26.0/2025,2000,g 11.5,4.0
# From MPC188412
C/2024 T5 (ATLAS),h,05/06.2061/2027,52.3868,100.6798,352.4527,1.002260,3.840638,2000,5.5,4.0
# From MPC188412
C/2024 U1 (PANSTARRS),e,128.7552,270.2640,188.0943,480.6299,0.0000935,0.98993664,0.0000,06/30.5012/2024,2000,g 10.0,4.0
# From MPC188412
A/2024 U2,h,01/15.3313/2026,120.6647,56.0703,29.8268,1.002885,8.178978,2000,12.1,2.0
# From MPC185660
C/2024 V1 (Borisov),e,54.6254,328.1941,168.6720,231.7441,0.0002794,0.98999523,0.0000,04/04.1174/2025,2000,g 14.8,4.0
# From MPEC 2024-YC7
C/2024 V2 (Sarneczky),e,95.9727,102.2006,13.7341,39.37513,0.0039891,0.96842368,1.4208,10/26.0/2025,2000,g 19.0,4.0
# From MPC182883
C/2024 W1 (PANSTARRS),e,83.2018,310.7253,256.7439,44.96907,0.0032684,0.94305468,0.7219,10/26.0/2025,2000,g 15.0,4.0
# From MPC182883
A/2024 W2,h,02/27.4171/2025,116.6115,241.9368,168.0065,1.002241,3.720806,2000,15.6,2.0
# From MPC182884
C/2024 X1 (Fazekas),e,6.4689,351.9391,124.3848,9.430480,0.0340332,0.59528798,2.8493,10/26.0/2025,2000,g 11.3,4.0
# From MPC185660
C/2024 X2 (ATLAS),e,109.2238,122.5213,315.7933,50.80705,0.0027216,0.92764066,0.2995,10/26.0/2025,2000,g  9.6,4.0
# From MPC185660
P/2024 X3 (PANSTARRS),e,2.9723,113.3632,352.9612,6.994639,0.0532790,0.62620605,22.1207,10/26.0/2025,2000,g 14.6,4.0
# From MPEC 2025-A40
C/2024 X4 (PANSTARRS),e,34.6668,258.9451,153.3017,10.07511,0.0308198,0.64221192,1.6650,10/26.0/2025,2000,g 12.6,4.0
# From MPC186632
C/2024 XK14 (Bok),e,109.2137,239.0903,243.4924,17.01215,0.0140464,0.87893124,2.2204,10/26.0/2025,2000,g 15.5,4.0
# From MPC182884
C/2024 Y1 (Masek),e,64.8325,112.5490,238.0793,62.74369,0.0019831,0.98692518,0.0000,11/27.0086/2024,2000,g 17.6,4.0
# From MPC188412
A/2025 A1,h,03/13.0938/2027,33.4243,101.3311,68.1014,1.002207,5.343030,2000,11.3,2.0
# From MPC184414
P/2025 A2 (PANSTARRS),e,20.7344,189.3185,278.0553,5.083489,0.0859926,0.32200000,33.1349,10/26.0/2025,2000,g 13.2,4.0
# From MPC184414
C/2025 A3 (Tsuchinshan),e,9.9761,322.4316,222.3210,10.19728,0.0302676,0.43198905,355.7575,10/26.0/2025,2000,g  9.0,4.0
# From MPC185660
C/2025 A4 (PANSTARRS),e,32.0247,69.9146,102.8045,11.05911,0.0267993,0.65419418,7.6586,10/26.0/2025,2000,g 12.4,4.0
# From MPC188413
C/2025 A6 (Lemmon),e,143.6636,108.0980,132.9702,121.2880,0.0007379,0.99563116,0.0000,11/08.5384/2025,2000,g 13.2,4.0
# From MPC188413
A/2025 A7,e,133.6541,348.8533,195.5781,4178,0.0000036,0.99930982,0.0000,03/28.1202/2025,2000,g 14.9,2.0
# From MPC182885
C/2025 B1 (PANSTARRS),h,06/26.7577/2025,39.6807,102.8416,23.5253,1.000172,3.530904,2000,12.0,4.0
# From MPC188413
C/2025 B2 (Borisov),h,09/11.2615/2026,91.7447,84.8667,78.8242,1.001258,8.240076,2000,6.2,4.0
# From MPC188413
P/2025 C1 (ATLAS),e,7.5167,9.0986,186.8064,4.196339,0.1146564,0.34561386,29.9732,10/26.0/2025,2000,g 10.8,4.0
# From MPC185660
C/2025 D1 (Groeller),h,05/20.9123/2028,84.4564,312.9014,185.9164,1.002998,14.117537,2000,1.2,4.0
# From MPC182885
P/2025 D2 (PANSTARRS),e,5.3344,256.7339,314.0349,8.924353,0.0369691,0.17908118,319.1202,10/26.0/2025,2000,g  8.2,4.0
# From MPC186632
P/2025 D3 (PANSTARRS),e,9.6432,186.6352,294.5068,3.967646,0.1247110,0.25247973,57.0060,10/26.0/2025,2000,g 14.7,4.0
# From MPC188413
P/2025 D4 (ATLAS),e,15.9396,233.1193,332.8888,8.907141,0.0370763,0.63457740,9.4065,10/26.0/2025,2000,g 13.2,4.0
# From MPC184415
C/2025 D5 (PANSTARRS),e,73.3807,0.7355,211.4947,3243,0.0000053,0.99937960,0.0000,05/13.2931/2025,2000,g 17.6,4.0
# From MPC184415
C/2025 D6 (ATLAS),e,145.7918,151.4873,285.4128,1554,0.0000161,0.99838831,0.0000,12/11.3927/2024,2000,g 13.2,4.0
# From MPC184415
C/2025 E1 (PANSTARRS),e,69.0620,344.5940,274.4211,1525,0.0000165,0.99737849,0.0000,09/23.7191/2026,2000,g  9.7,4.0
# From MPC185661
C/2025 F1 (ATLAS),e,109.2373,122.7056,334.2250,284.2116,0.0002057,0.99623546,0.0000,04/20.4662/2025,2000,g 18.0,4.0
# From MPC188413
C/2025 F2 (SWAN),h,05/01.1578/2025,90.3663,329.8355,153.8358,1.000136,0.333534,2000,11.2,4.0
# From MPC188413
C/2025 J1 (Borisov),e,95.4444,273.9775,166.6186,1212,0.0000234,0.99704495,0.0000,06/11.8002/2026,2000,g  9.1,4.0
# From MPC188413
C/2025 K1 (ATLAS),h,10/08.4395/2025,147.8644,97.5573,271.0256,1.000265,0.334197,2000,12.2,4.0
# From MPC186633
C/2025 K2 (PANSTARRS),e,113.9793,113.8289,232.4639,25.33420,0.0077294,0.88696420,0.0053,10/26.0/2025,2000,g 13.7,4.0
# From MPC188413
C/2025 K3 (PANSTARRS),h,12/14.1745/2028,104.9350,350.6319,188.5894,1.001441,3.470607,2000,6.4,4.0
# From MPC188413
C/2025 K4 (Siverd),e,38.5422,297.0846,326.9243,43.20937,0.0034701,0.94139939,0.3115,10/26.0/2025,2000,g 14.1,4.0
# From MPC188413
C/2025 L1 (ATLAS),h,01/12.7438/2026,114.1372,208.1091,341.2589,1.001382,1.679482,2000,11.4,4.0
# From MPC188414
C/2025 L2 (MAPS),e,86.5835,134.9854,232.6427,500.6106,0.0000880,0.99433961,0.0000,12/20.6629/2025,2000,g 11.7,4.0
# From MPC188414
C/2025 M1 (PANSTARRS),e,64.8973,66.9585,230.4141,5462,0.0000024,0.99801719,0.0000,08/03.0445/2029,2000,g  2.9,4.0
# From MPC188414
C/2025 M2 (PANSTARRS),h,11/23.3881/2027,173.2151,305.5340,96.7544,1.002131,2.720495,2000,13.4,4.0
# From MPC188414
C/2025 M3 (PANSTARRS),h,07/05.1633/2026,137.4260,65.2657,195.3778,1.019585,6.531889,2000,9.0,4.0
# From MPC188414
C/2025 N2 (ATLAS),h,12/12.4654/2024,81.6626,94.4598,230.1004,1.001722,8.984122,2000,5.1,4.0
# From MPC188414
C/2025 O2 (MAPS),e,134.5431,332.3118,280.2470,2290,0.0000090,0.99900053,0.0000,05/23.7146/2025,2000,g 14.3,4.0
# From MPC188414
A/2025 P1,e,117.7943,342.4179,334.5272,56.79506,0.0023027,0.96169037,0.4823,10/26.0/2025,2000,g 17.1,4.0
# From MPC188414
